ONEWEB-0158             
1 48054U 21025N   24144.43795219  .00000314  00000+0  82438-3 0  9991
2 48054  87.8910 110.4448 0001919  87.1002 273.0347 13.13468005154553
ONEWEB-0157             
1 48055U 21025P   24144.46174775 -.00000195  00000+0 -56857-3 0  9998
2 48055  87.8910 110.4550 0002019  77.8107 282.3248 13.13467783154490
ONEWEB-0162             
1 48056U 21025Q   24144.42525064  .00000324  00000+0  85224-3 0  9998
2 48056  87.8906 110.4585 0001962  82.7697 277.3655 13.13472248154464
ONEWEB-0155             
1 48057U 21025R   24144.44588400  .00000213  00000+0  54953-3 0  9996
2 48057  87.8908 110.4646 0002068  85.0081 275.1284 13.13467997154601
ONEWEB-0149             
1 48058U 21025S   24144.46651375 -.00000290  00000+0 -82888-3 0  9996
2 48058  87.8909 110.4569 0001827  80.1850 279.9486 13.13469538154417
ONEWEB-0148             
1 48059U 21025T   24144.43161920  .00000393  00000+0  10402-2 0  9990
2 48059  87.8910 110.4730 0001703  63.3381 296.7922 13.13472279154536
ONEWEB-0160             
1 48060U 21025U   24144.44746989  .00000142  00000+0  35419-3 0  9995
2 48060  87.8913 110.4658 0001901 113.5466 246.5863 13.13468084154482
ONEWEB-0163             
1 48061U 21025V   24144.43319129  .00000411  00000+0  10896-2 0  9997
2 48061  87.8908 110.4619 0002153  78.1493 281.9877 13.13468523154600
